{
  "norad_id": 50204,
  "name": "STARLINK-3254",
  "history": [
    {
      "epoch": "2026-03-28T20:58:11.103168Z",
      "apogee_km": 540.6566905948839,
      "perigee_km": 538.7778013816733,
      "latitude_deg": 3.13230392456444e-05,
      "longitude_deg": 12.17552710620071,
      "height_km": 540.5750136434672,
      "semi_major_axis_km": 6917.854245988278,
      "eccentricity": 0.0001358,
      "inclination_deg": 53.2172,
      "raan_deg": 153.0097,
      "arg_perigee_deg": 87.6866,
      "mean_anomaly_deg": 272.4282,
      "mean_motion_rev_day": 15.08848553
    },
    {
      "epoch": "2026-03-29T08:05:55.214304Z",
      "apogee_km": 540.7395797405943,
      "perigee_km": 538.8727036043829,
      "latitude_deg": 4.5295988801753305e-05,
      "longitude_deg": -157.29510727606745,
      "height_km": 540.8950305167981,
      "semi_major_axis_km": 6917.943141672488,
      "eccentricity": 0.00013493,
      "inclination_deg": 53.217,
      "raan_deg": 150.9299,
      "arg_perigee_deg": 101.9445,
      "mean_anomaly_deg": 258.1699,
      "mean_motion_rev_day": 15.0881947
    },
    {
      "epoch": "2026-03-30T14:18:14.473440Z",
      "apogee_km": 540.6966429935483,
      "perigee_km": 538.7909051978995,
      "latitude_deg": 1.9453441550647603e-05,
      "longitude_deg": 102.73373849891381,
      "height_km": 540.5923526344169,
      "semi_major_axis_km": 6917.880774095724,
      "eccentricity": 0.00013774,
      "inclination_deg": 53.2169,
      "raan_deg": 145.2795,
      "arg_perigee_deg": 87.1697,
      "mean_anomaly_deg": 272.9453,
      "mean_motion_rev_day": 15.08839874
    }
  ]
}